
    {
      "objectName": "ONEWEB-0178",
      "objectId": "2021-025AK",
      "noradId": 48075,
      "epochUtc": "2026-03-16T04:19:06.889440Z",
      "meanMotionRevPerDay": 13.13470864,
      "eccentricity": 0.00020092,
      "inclinationDeg": 87.9019,
      "raanDeg": 338.7507,
      "argPerigeeDeg": 81.6777,
      "meanAnomalyDeg": 278.458,
      "bstar": 0.00096318591,
      "meanMotionDot": 0.00000365,
      "meanMotionDdot": 0,
      "elementSetNo": 999,
      "revAtEpoch": 24151
    },
    {
      "objectName": "ONEWEB-0179",
      "objectId": "2021-031C",
      "noradId": 48212,
      "epochUtc": "2026-03-16T04:23:20.598720Z",
      "meanMotionRevPerDay": 13.14503505,
      "eccentricity": 0.00017008,
      "inclinationDeg": 87.8978,
      "raanDeg": 308.2534,
      "argPerigeeDeg": 73.6901,
      "meanAnomalyDeg": 286.4415,
      "bstar": 0.0004639599,
      "meanMotionDot": 0.00000185,
      "meanMotionDdot": 0,
      "elementSetNo": 999,
      "revAtEpoch": 23611
    },
    {
      "objectName": "ONEWEB-0189",
      "objectId": "2021-031H",
      "noradId": 48217,
      "epochUtc": "2026-03-16T03:31:57.889056Z",
      "meanMotionRevPerDay": 13.14503489,
      "eccentricity": 0.00020414,
      "inclinationDeg": 87.8976,
      "raanDeg": 308.2633,
      "argPerigeeDeg": 80.8861,
      "meanAnomalyDeg": 279.2499,
      "bstar": -0.000029057999,
      "meanMotionDot": 2e-8,
      "meanMotionDdot": 0,
      "elementSetNo": 999,
      "revAtEpoch": 23600
    },
    {
      "objectName": "ONEWEB-0219",
      "objectId": "2021-031P",
      "noradId": 48223,
      "epochUtc": "2026-03-16T03:09:07.092576Z",
      "meanMotionRevPerDay": 13.14503756,
      "eccentricity": 0.00017409,
      "inclinationDeg": 87.8975,
      "raanDeg": 308.2691,
      "argPerigeeDeg": 73.8188,
      "meanAnomalyDeg": 286.3134,
      "bstar": -0.00035068735,
      "meanMotionDot": -0.00000117,
      "meanMotionDdot": 0,
      "elementSetNo": 999,
      "revAtEpoch": 23615
    },
    {
      "objectName": "ONEWEB-0182",
      "objectId": "2021-031U",
      "noradId": 48228,
      "epochUtc": "2026-03-16T03:59:22.197696Z",
      "meanMotionRevPerDay": 13.14503101,
      "eccentricity": 0.00014767,
      "inclinationDeg": 87.8972,
      "raanDeg": 308.27,
      "argPerigeeDeg": 76.7781,
      "meanAnomalyDeg": 283.3514,
      "bstar": 0.00056033603,
      "meanMotionDot": 0.00000221,
      "meanMotionDdot": 0,
      "elementSetNo": 999,
      "revAtEpoch": 23621
    },
    {
      "objectName": "ONEWEB-0199",
      "objectId": "2021-031AA",
      "noradId": 48234,
      "epochUtc": "2026-03-16T04:03:55.151712Z",
      "meanMotionRevPerDay": 13.14500248,
      "eccentricity": 0.00014913,
      "inclinationDeg": 87.897,
      "raanDeg": 308.2545,
      "argPerigeeDeg": 85.7688,
      "meanAnomalyDeg": 274.3612,
      "bstar": -0.0014911554,
      "meanMotionDot": -0.0000054,
      "meanMotionDdot": 0,
      "elementSetNo": 999,
      "revAtEpoch": 23604
    },
    {
      "objectName": "ONEWEB-0191",
      "objectId": "2021-031AF",
      "noradId": 48239,
      "epochUtc": "2026-03-16T03:22:49.467648Z",
      "meanMotionRevPerDay": 13.14503434,
      "eccentricity": 0.00015971,
      "inclinationDeg": 87.8978,
      "raanDeg": 308.2636,
      "argPerigeeDeg": 82.441,
      "meanAnomalyDeg": 277.6901,
      "bstar": -0.00028418385,
      "meanMotionDot": -9.3e-7,
      "meanMotionDdot": 0,
      "elementSetNo": 999,
      "revAtEpoch": 23594
    },
    {
      "objectName": "ONEWEB-0217",
      "objectId": "2021-031AM",
      "noradId": 48245,
      "epochUtc": "2026-03-16T04:47:19.220928Z",
      "meanMotionRevPerDay": 13.14503139,
      "eccentricity": 0.00020196,
      "inclinationDeg": 87.8978,
      "raanDeg": 308.2502,
      "argPerigeeDeg": 80.5028,
      "meanAnomalyDeg": 279.633,
      "bstar": -0.00031002881,
      "meanMotionDot": -0.00000102,
      "meanMotionDdot": 0,
      "elementSetNo": 999,
      "revAtEpoch": 23596
    },
    {
      "objectName": "ONEWEB-0235",
      "objectId": "2021-045E",
      "noradId": 48771,
      "epochUtc": "2026-03-16T02:38:40.373664Z",
      "meanMotionRevPerDay": 13.15548575,
      "eccentricity": 0.00020141,
      "inclinationDeg": 87.8942,
      "raanDeg": 277.7686,
      "argPerigeeDeg": 100.7952,
      "meanAnomalyDeg": 259.3406,
      "bstar": -0.00024374989,
      "meanMotionDot": -7.9e-7,
      "meanMotionDdot": 0,
      "elementSetNo": 999,
      "revAtEpoch": 23214
    },
    {
      "objectName": "ONEWEB-0244",
      "objectId": "2021-045K",
      "noradId": 48776,
      "epochUtc": "2026-03-16T01:21:05.769792Z",
      "meanMotionRevPerDay": 13.1554837,
      "eccentricity": 0.00017002,
      "inclinationDeg": 87.8939,
      "raanDeg": 277.7659,
      "argPerigeeDeg": 95.3491,
      "meanAnomalyDeg": 264.7834,
      "bstar": -0.00019302564,
      "meanMotionDot": -6e-7,
      "meanMotionDdot": 0,
      "elementSetNo": 999,
      "revAtEpoch": 23272
    },
    {
      "objectName": "ONEWEB-0231",
      "objectId": "2021-045R",
      "noradId": 48782,
      "epochUtc": "2026-03-16T02:31:49.946016Z",
      "meanMotionRevPerDay": 13.15548146,
      "eccentricity": 0.00018881,
      "inclinationDeg": 87.8934,
      "raanDeg": 277.7818,
      "argPerigeeDeg": 95.1521,
      "meanAnomalyDeg": 264.9825,
      "bstar": 0.000086557395,
      "meanMotionDot": 4.5e-7,
      "meanMotionDdot": 0,
      "elementSetNo": 999,
      "revAtEpoch": 23210
    },
    {
      "objectName": "ONEWEB-0210",
      "objectId": "2021-045W",
      "noradId": 48787,
      "epochUtc": "2026-03-16T01:23:22.490880Z",
      "meanMotionRevPerDay": 13.15548604,
      "eccentricity": 0.00018519,
      "inclinationDeg": 87.8942,
      "raanDeg": 277.7712,
      "argPerigeeDeg": 121.0158,
      "meanAnomalyDeg": 239.1154,
      "bstar": -0.00026157984,
      "meanMotionDot": -8.6e-7,
      "meanMotionDdot": 0,
      "elementSetNo": 999,
      "revAtEpoch": 23207
    },
    {
      "objectName": "ONEWEB-0226",
      "objectId": "2021-045AC",
      "noradId": 48793,
      "epochUtc": "2026-03-16T02:36:23.318208Z",
      "meanMotionRevPerDay": 13.15548751,
      "eccentricity": 0.00016973,
      "inclinationDeg": 87.8932,
      "raanDeg": 277.7764,
      "argPerigeeDeg": 101.6121,
      "meanAnomalyDeg": 258.52,
      "bstar": 0.00017702843,
      "meanMotionDot": 7.9e-7,
      "meanMotionDdot": 0,
      "elementSetNo": 999,
      "revAtEpoch": 23211
    }