ONEWEB-0178             
1 48075U 21025AK  26075.17994085  .00000365  00000+0  96319-3 0  9991
2 48075  87.9019 338.7507 0002009  81.6777 278.4580 13.13470864241514
ONEWEB-0179             
1 48212U 21031C   26075.18287730  .00000185  00000+0  46396-3 0  9994
2 48212  87.8978 308.2534 0001700  73.6901 286.4415 13.14503505236115
ONEWEB-0189             
1 48217U 21031H   26075.14719779  .00000002  00000+0 -29058-4 0  9994
2 48217  87.8976 308.2633 0002041  80.8861 279.2499 13.14503489236003
ONEWEB-0219             
1 48223U 21031P   26075.13133209 -.00000117  00000+0 -35069-3 0  9994
2 48223  87.8975 308.2691 0001740  73.8188 286.3134 13.14503756236150
ONEWEB-0182             
1 48228U 21031U   26075.16622914  .00000221  00000+0  56034-3 0  9997
2 48228  87.8972 308.2700 0001476  76.7781 283.3514 13.14503101236210
ONEWEB-0199             
1 48234U 21031AA  26075.16938833 -.00000540  00000+0 -14912-2 0  9998
2 48234  87.8970 308.2545 0001491  85.7688 274.3612 13.14500248236044
ONEWEB-0191             
1 48239U 21031AF  26075.14085032 -.00000093  00000+0 -28418-3 0  9995
2 48239  87.8978 308.2636 0001597  82.4410 277.6901 13.14503434235947
ONEWEB-0217             
1 48245U 21031AM  26075.19952802 -.00000102  00000+0 -31003-3 0  9990
2 48245  87.8978 308.2502 0002019  80.5028 279.6330 13.14503139235962
ONEWEB-0235             
1 48771U 21045E   26075.11018951 -.00000079  00000+0 -24375-3 0  9996
2 48771  87.8942 277.7686 0002014 100.7952 259.3406 13.15548575232146
ONEWEB-0244             
1 48776U 21045K   26075.05631678 -.00000060  00000+0 -19303-3 0  9996
2 48776  87.8939 277.7659 0001700  95.3491 264.7834 13.15548370232727
ONEWEB-0231             
1 48782U 21045R   26075.10543919  .00000045  00000+0  86557-4 0  9996
2 48782  87.8934 277.7818 0001888  95.1521 264.9825 13.15548146232100
ONEWEB-0210             
1 48787U 21045W   26075.05789920 -.00000086  00000+0 -26158-3 0  9996
2 48787  87.8942 277.7712 0001851 121.0158 239.1154 13.15548604232076
ONEWEB-0226             
1 48793U 21045AC  26075.10860322  .00000079  00000+0  17703-3 0  9991
2 48793  87.8932 277.7764 0001697 101.6121 258.5200 13.15548751232116
